STARLINK-1683
1 16578C 20070AY  21326.14566192 -.00008914  00000-0 -59732-3 0  3264
2 16578  53.0547 348.0961 0001604  59.4870 223.3497 15.06401167    13
